NOAA 15                 
1 25338U 98030A   24045.51070865  .00000390  00000+0  17967-3 0  9992
2 25338  98.5835  75.1430 0009699 331.3979  28.6669 14.26493639339806
NOAA 18                 
1 28654U 05018A   24045.44599880  .00000429  00000+0  25290-3 0  9996
2 28654  98.8851 123.4061 0014923  57.0418 303.2187 14.13123511965788
NOAA 19                 
1 33591U 09005A   24045.45105075  .00000357  00000+0  21648-3 0  9995
2 33591  99.0662  99.8522 0012890 281.4256  78.5467 14.12927252774154
METOP-B                 
1 38771U 12049A   24045.50214215  .00000313  00000+0  16290-3 0  9994
2 38771  98.6459 105.4051 0001432  73.6339 286.4996 14.21470849591971
SARAL                   
1 39086U 13009A   24044.88057449  .00000383  00000+0  15775-3 0  9999
2 39086  98.5480 231.7178 0000994 316.4437  43.6668 14.32346321573288
METOP-C                 
1 43689U 18087A   24045.46860430  .00000307  00000+0  16045-3 0  9998
2 43689  98.6978 106.3822 0003423  83.0052 277.1514 14.21482822273543
ANGELS                  
1 44876U 19092D   24045.07420951  .00011885  00000+0  48155-3 0  9991
2 44876  97.4750 233.6539 0011331  41.8329 318.3773 15.24755207230432
GAZELLE                 
1 54023U 22127A   24044.91954109  .00000483  00000+0  16034-3 0  9991
2 54023  98.3381  42.0116 0012262 244.6098 115.3823 14.42001149 71218
EOS-6 (OCEANSAT-3)      
1 54361U 22158A   24045.51722093  .00000953  00000+0  27396-3 0  9997
2 54361  98.3497 144.2497 0001058 107.4458 252.6850 14.47006909 64384
